[{"OBJECT_NAME":"STARLINK-35193","OBJECT_ID":"2025-224H","EPOCH":"2026-03-09T01:21:57.257280","MEAN_MOTION":15.30213872,"ECCENTRICITY":0.00012146,"INCLINATION":53.1611,"RA_OF_ASC_NODE":14.5512,"ARG_OF_PERICENTER":120.2525,"MEAN_ANOMALY":239.8597,"EPHEMERIS_TYPE":0,"CLASSIFICATION_TYPE":"U","NORAD_CAT_ID":65889,"ELEMENT_SET_NO":999,"REV_AT_EPOCH":2475,"BSTAR":0.00084703262,"MEAN_MOTION_DOT":0.00024822,"MEAN_MOTION_DDOT":0},{"OBJECT_NAME":"KUIPER-00175","OBJECT_ID":"2025-301C","EPOCH":"2026-03-09T23:30:37.840032","MEAN_MOTION":15.30996371,"ECCENTRICITY":0.00022792,"INCLINATION":51.8781,"RA_OF_ASC_NODE":63.6978,"ARG_OF_PERICENTER":50.5695,"MEAN_ANOMALY":309.549,"EPHEMERIS_TYPE":0,"CLASSIFICATION_TYPE":"U","NORAD_CAT_ID":67135,"ELEMENT_SET_NO":999,"REV_AT_EPOCH":1385,"BSTAR":0.00066732304,"MEAN_MOTION_DOT":0.00019968,"MEAN_MOTION_DDOT":0}]
